{"type": "FeatureCollection", "features": [ {"type": "Feature", "properties": {"norad_id": 57401, "name": "TIANMU-1 09", "group": "weather", "lat": -79.77749803000306, "lon": -174.92478582899807, "alt_km": 491.4513157336296, "timestamp": "2025-12-27T09:28:56.109979+00:00", "meta": {"OBJECT_NAME": "TIANMU-1 09", "OBJECT_ID": "2023-101C", "EPOCH": "2025-12-27T03:37:17.662368", "MEAN_MOTION": 15.28298293, "ECCENTRICITY": 0.0006067, "INCLINATION": 97.2803, "RA_OF_ASC_NODE": 49.9841, "ARG_OF_PERICENTER": 43.9084, "MEAN_ANOMALY": 316.2637, "EPHEMERIS_TYPE": 0, "CLASSIFICATION_TYPE": "U", "NORAD_CAT_ID": 57401, "ELEMENT_SET_NO": 999, "REV_AT_EPOCH": 13535, "BSTAR": 0.00033578, "MEAN_MOTION_DOT": 9.19e-05, "MEAN_MOTION_DDOT": 0}, "tle": {"line1": "1 57401U 23101C   25361.15089887  .00009190  00000+0  33578-3 0  9994", "line2": "2 57401  97.2803  49.9841 0006067  43.9084 316.2637 15.28298293135354"}}, "geometry": {"type": "Point", "coordinates": [-174.92478582899807, -79.77749803000306]}}, {"type": "Feature", "properties": {"norad_id": 57402, "name": "TIANMU-1 10", "group": "weather", "lat": 72.77014922756389, "lon": 26.71400281865159, "alt_km": 469.5363266372806, "timestamp": "2025-12-27T09:28:56.109988+00:00", "meta": {"OBJECT_NAME": "TIANMU-1 10", "OBJECT_ID": "2023-101D", "EPOCH": "2025-12-27T04:26:39.939936", "MEAN_MOTION": 15.28290635, "ECCENTRICITY": 0.0007767, "INCLINATION": 97.2883, "RA_OF_ASC_NODE": 50.8827, "ARG_OF_PERICENTER": 40.9462, "MEAN_ANOMALY": 319.236, "EPHEMERIS_TYPE": 0, "CLASSIFICATION_TYPE": "U", "NORAD_CAT_ID": 57402, "ELEMENT_SET_NO": 999, "REV_AT_EPOCH": 13535, "BSTAR": 0.00032102, "MEAN_MOTION_DOT": 8.783e-05, "MEAN_MOTION_DDOT": 0}, "tle": {"line1": "1 57402U 23101D   25361.18518449  .00008783  00000+0  32102-3 0  9998", "line2": "2 57402  97.2883  50.8827 0007767  40.9462 319.2360 15.28290635135351"}}, "geometry": {"type": "Point", "coordinates": [26.71400281865159, 72.77014922756389]}}, {"type": "Feature", "properties": {"norad_id": 57490, "name": "FENGYUN 3F", "group": "weather", "lat": 30.220291021573214, "lon": 64.3298610114248, "alt_km": 824.039501480207, "timestamp": "2025-12-27T09:28:56.110002+00:00", "meta": {"OBJECT_NAME": "FENGYUN 3F", "OBJECT_ID": "2023-111A", "EPOCH": "2025-12-27T04:15:53.633376", "MEAN_MOTION": 14.19897411, "ECCENTRICITY": 8.67e-05, "INCLINATION": 98.7064, "RA_OF_ASC_NODE": 69.2369, "ARG_OF_PERICENTER": 118.0254, "MEAN_ANOMALY": 242.101, "EPHEMERIS_TYPE": 0, "CLASSIFICATION_TYPE": "U", "NORAD_CAT_ID": 57490, "ELEMENT_SET_NO": 999, "REV_AT_EPOCH": 12445, "BSTAR": 6.0048e-05, "MEAN_MOTION_DOT": 8.4e-07, "MEAN_MOTION_DDOT": 0}, "tle": {"line1": "1 57490U 23111A   25361.17770409  .00000084  00000+0  60048-4 0  9998", "line2": "2 57490  98.7064  69.2369 0000867 118.0254 242.1010 14.19897411124459"}}, "geometry": {"type": "Point", "coordinates": [64.3298610114248, 30.220291021573214]}}, {"type": "Feature", "properties": {"norad_id": 58584, "name": "ARKTIKA-M 2", "group": "weather", "lat": 53.93694413290917, "lon": -142.8048793447918, "alt_km": 31696.73592637749, "timestamp": "2025-12-27T09:28:56.110014+00:00", "meta": {"OBJECT_NAME": "ARKTIKA-M 2", "OBJECT_ID": "2023-198A", "EPOCH": "2025-12-26T18:51:48.111264", "MEAN_MOTION": 2.00602169, "ECCENTRICITY": 0.6866198, "INCLINATION": 63.2254, "RA_OF_ASC_NODE": 173.363, "ARG_OF_PERICENTER": 268.0478, "MEAN_ANOMALY": 18.8426, "EPHEMERIS_TYPE": 0, "CLASSIFICATION_TYPE": "U", "NORAD_CAT_ID": 58584, "ELEMENT_SET_NO": 999, "REV_AT_EPOCH": 1486, "BSTAR": 0, "MEAN_MOTION_DOT": 2.36e-06, "MEAN_MOTION_DDOT": 0}, "tle": {"line1": "1 58584U 23198A   25360.78597351  .00000236  00000+0  00000+0 0  9993", "line2": "2 58584  63.2254 173.3630 6866198 268.0478  18.8426  2.00602169 14860"}}, "geometry": {"type": "Point", "coordinates": [-142.8048793447918, 53.93694413290917]}}, {"type": "Feature", "properties": {"norad_id": 58645, "name": "TIANMU-1 11", "group": "weather", "lat": 68.16826441311063, "lon": 1.9376024473755966, "alt_km": 490.06380889651155, "timestamp": "2025-12-27T09:28:56.110025+00:00", "meta": {"OBJECT_NAME": "TIANMU-1 11", "OBJECT_ID": "2023-205A", "EPOCH": "2025-12-27T04:27:13.089024", "MEAN_MOTION": 15.2477632, "ECCENTRICITY": 0.0007601, "INCLINATION": 97.3601, "RA_OF_ASC_NODE": 20.5552, "ARG_OF_PERICENTER": 248.3375, "MEAN_ANOMALY": 111.7054, "EPHEMERIS_TYPE": 0, "CLASSIFICATION_TYPE": "U", "NORAD_CAT_ID": 58645, "ELEMENT_SET_NO": 999, "REV_AT_EPOCH": 11129, "BSTAR": 0.00029271, "MEAN_MOTION_DOT": 7.191e-05, "MEAN_MOTION_DDOT": 0}, "tle": {"line1": "1 58645U 23205A   25361.18556816  .00007191  00000+0  29271-3 0  9998", "line2": "2 58645  97.3601  20.5552 0007601 248.3375 111.7054 15.24776320111291"}}, "geometry": {"type": "Point", "coordinates": [1.9376024473755966, 68.16826441311063]}}, {"type": "Feature", "properties": {"norad_id": 58646, "name": "TIANMU-1 12", "group": "weather", "lat": -80.7398563770221, "lon": 72.99744616180782, "alt_km": 496.450940822504, "timestamp": "2025-12-27T09:28:56.110036+00:00", "meta": {"OBJECT_NAME": "TIANMU-1 12", "OBJECT_ID": "2023-205B", "EPOCH": "2025-12-27T05:07:35.459904", "MEAN_MOTION": 15.24663963, "ECCENTRICITY": 0.0006136, "INCLINATION": 97.3589, "RA_OF_ASC_NODE": 20.3835, "ARG_OF_PERICENTER": 226.1207, "MEAN_ANOMALY": 133.9525, "EPHEMERIS_TYPE": 0, "CLASSIFICATION_TYPE": "U", "NORAD_CAT_ID": 58646, "ELEMENT_SET_NO": 999, "REV_AT_EPOCH": 11128, "BSTAR": 0.00031998, "MEAN_MOTION_DOT": 7.839e-05, "MEAN_MOTION_DDOT": 0}, "tle": {"line1": "1 58646U 23205B   25361.21360486  .00007839  00000+0  31998-3 0  9997", "line2": "2 58646  97.3589  20.3835 0006136 226.1207 133.9525 15.24663963111285"}}, "geometry": {"type": "Point", "coordinates": [72.99744616180782, -80.7398563770221]}}, {"type": "Feature", "properties": {"norad_id": 58647, "name": "TIANMU-1 13", "group": "weather", "lat": 81.71742289917087, "lon": -96.59196744159118, "alt_km": 485.8463081599284, "timestamp": "2025-12-27T09:28:56.110046+00:00", "meta": {"OBJECT_NAME": "TIANMU-1 13", "OBJECT_ID": "2023-205C", "EPOCH": "2025-12-27T04:20:48.240096", "MEAN_MOTION": 15.24707408, "ECCENTRICITY": 0.000685, "INCLINATION": 97.3617, "RA_OF_ASC_NODE": 20.5587, "ARG_OF_PERICENTER": 204.8514, "MEAN_ANOMALY": 155.2395, "EPHEMERIS_TYPE": 0, "CLASSIFICATION_TYPE": "U", "NORAD_CAT_ID": 58647, "ELEMENT_SET_NO": 999, "REV_AT_EPOCH": 11127, "BSTAR": 0.00029862, "MEAN_MOTION_DOT": 7.321e-05, "MEAN_MOTION_DDOT": 0}, "tle": {"line1": "1 58647U 23205C   25361.18111389  .00007321  00000+0  29862-3 0  9993", "line2": "2 58647  97.3617  20.5587 0006850 204.8514 155.2395 15.24707408111275"}}, "geometry": {"type": "Point", "coordinates": [-96.59196744159118, 81.71742289917087]}}, {"type": "Feature", "properties": {"norad_id": 58648, "name": "TIANMU-1 14", "group": "weather", "lat": -4.066998692865762, "lon": -160.42200684652843, "alt_km": 490.67782782641916, "timestamp": "2025-12-27T09:28:56.110056+00:00", "meta": {"OBJECT_NAME": "TIANMU-1 14", "OBJECT_ID": "2023-205D", "EPOCH": "2025-12-27T05:31:38.230176", "MEAN_MOTION": 15.24690411, "ECCENTRICITY": 0.0007529, "INCLINATION": 97.3549, "RA_OF_ASC_NODE": 19.9424, "ARG_OF_PERICENTER": 210.7573, "MEAN_ANOMALY": 149.3225, "EPHEMERIS_TYPE": 0, "CLASSIFICATION_TYPE": "U", "NORAD_CAT_ID": 58648, "ELEMENT_SET_NO": 999, "REV_AT_EPOCH": 11128, "BSTAR": 0.00029987, "MEAN_MOTION_DOT": 7.349e-05, "MEAN_MOTION_DDOT": 0}, "tle": {"line1": "1 58648U 23205D   25361.23030359  .00007349  00000+0  29987-3 0  9995", "line2": "2 58648  97.3549  19.9424 0007529 210.7573 149.3225 15.24690411111289"}}, "geometry": {"type": "Point", "coordinates": [-160.42200684652843, -4.066998692865762]}}, {"type": "Feature", "properties": {"norad_id": 58660, "name": "TIANMU-1 19", "group": "weather", "lat": -75.34354561956818, "lon": -97.56493622109214, "alt_km": 487.34162108566943, "timestamp": "2025-12-27T09:28:56.110066+00:00", "meta": {"OBJECT_NAME": "TIANMU-1 19", "OBJECT_ID": "2023-208A", "EPOCH": "2025-12-27T05:12:59.618880", "MEAN_MOTION": 15.2811918, "ECCENTRICITY": 0.0004944, "INCLINATION": 97.4383, "RA_OF_ASC_NODE": 112.2279, "ARG_OF_PERICENTER": 192.6984, "MEAN_ANOMALY": 167.4132, "EPHEMERIS_TYPE": 0, "CLASSIFICATION_TYPE": "U", "NORAD_CAT_ID": 58660, "ELEMENT_SET_NO": 999, "REV_AT_EPOCH": 11103, "BSTAR": 0.00041821, "MEAN_MOTION_DOT": 0.000114, "MEAN_MOTION_DDOT": 0}, "tle": {"line1": "1 58660U 23208A   25361.21735670  .00011400  00000+0  41821-3 0  9992", "line2": "2 58660  97.4383 112.2279 0004944 192.6984 167.4132 15.28119180111031"}}, "geometry": {"type": "Point", "coordinates": [-97.56493622109214, -75.34354561956818]}}, {"type": "Feature", "properties": {"norad_id": 58661, "name": "TIANMU-1 20", "group": "weather", "lat": 33.76112483441915, "lon": 107.86136914985694, "alt_km": 480.537164089018, "timestamp": "2025-12-27T09:28:56.110078+00:00", "meta": {"OBJECT_NAME": "TIANMU-1 20", "OBJECT_ID": "2023-208B", "EPOCH": "2025-12-27T04:37:20.810208", "MEAN_MOTION": 15.29309501, "ECCENTRICITY": 0.0006953, "INCLINATION": 97.4322, "RA_OF_ASC_NODE": 112.6651, "ARG_OF_PERICENTER": 206.8921, "MEAN_ANOMALY": 153.196, "EPHEMERIS_TYPE": 0, "CLASSIFICATION_TYPE": "U", "NORAD_CAT_ID": 58661, "ELEMENT_SET_NO": 999, "REV_AT_EPOCH": 11110, "BSTAR": 0.00042988, "MEAN_MOTION_DOT": 0.00012161, "MEAN_MOTION_DDOT": 0}, "tle": {"line1": "1 58661U 23208B   25361.19260197  .00012161  00000+0  42988-3 0  9997", "line2": "2 58661  97.4322 112.6651 0006953 206.8921 153.1960 15.29309501111102"}}, "geometry": {"type": "Point", "coordinates": [107.86136914985694, 33.76112483441915]}}]}